OBJECT E                
1 67990U 26039E   26062.58336806 -.01203403  46966-3 -20187-2 0  9995
2 67990  42.9990  92.9652 0001818 277.2446 349.1623 16.01949740  1896
STARLINK-36941          
1 67991U 26039F   26062.58336806 -.01198456  46655-3 -20009-2 0  9995
2 67991  42.9989  92.9634 0001734 278.6654 348.3551 16.02029759  1899
STARLINK-36950          
1 67992U 26039G   26062.58336806 -.01191871  46252-3 -19752-2 0  9996
2 67992  42.9990  92.9616 0001750 277.6024 350.1725 16.02154769  1894
STARLINK-36975          
1 67993U 26039H   26062.58336806 -.01183344  45705-3 -19480-2 0  9993
2 67993  42.9990  92.9599 0001823 277.2001 351.2886 16.02266174  1891
STARLINK-36993          
1 67994U 26039J   26062.58336806 -.01183208  45765-3 -19321-2 0  9993
2 67994  42.9991  92.9580 0001773 278.3645 350.8986 16.02402663  1894
STARLINK-36968          
1 67995U 26039K   26062.58336806 -.01186525  46159-3 -19020-2 0  9993
2 67995  42.9991  92.9514 0001796 278.7541 353.1164 16.02714179  1898
STARLINK-36979          
1 67996U 26039L   26062.58336806 -.01189905  46338-3 -19212-2 0  9991
2 67996  42.9990  92.9531 0001756 278.5554 352.5876 16.02594300  1890
STARLINK-36994          
1 67997U 26039M   26062.58336806 -.01180014  45839-3 -18605-2 0  9994
2 67997  42.9990  92.9472 0001789 278.5694 354.8785 16.02990922  1890
STARLINK-36988          
1 67998U 26039N   26062.58336806 -.01186240  46220-3 -18840-2 0  9998
2 67998  42.9991  92.9492 0001748 277.7253 354.9822 16.02870609  1893
STARLINK-36926          
1 67999U 26039P   26062.58336806 -.01172810  45395-3 -18348-2 0  9992
2 67999  42.9991  92.9455 0001833 276.2339 357.9852 16.03120618  1892
STARLINK-36931          
1 68000U 26039Q   26062.58336806 -.01168961  45167-3 -18192-2 0  9992
2 68000  42.9992  92.9440 0001788 278.0237 356.8308 16.03207784  1891
STARLINK-36903          
1 68001U 26039R   26062.58336806 -.01166475  45063-3 -18002-2 0  9996
2 68001  42.9994  92.9420 0001768 278.6409 356.9989 16.03346782  1895
STARLINK-36898          
1 68002U 26039S   26062.58336806 -.01161132  44809-3 -17658-2 0  9995
2 68002  42.9993  92.9378 0001733 282.8520 354.3540 16.03590578  1899
STARLINK-36862          
1 68003U 26039T   26062.58336806 -.01147998  43996-3 -17229-2 0  9990
2 68003  42.9993  92.9343 0001747 281.1507 357.4698 16.03807440  1891
STARLINK-36888          
1 68004U 26039U   26062.58336806 -.01162300  44824-3 -17819-2 0  9991
2 68004  42.9995  92.9401 0001746 279.5219 356.9165 16.03456999  1891
STARLINK-36910          
1 68005U 26039V   26062.58336806 -.01153860  44358-3 -17420-2 0  9993
2 68005  42.9993  92.9361 0001782 278.8511 359.0975 16.03710471  1893
